KAITUO 1B               
1 40912U 15049P   17359.39248225  .00001345  00000-0  68735-4 0  9991
2 40912  97.4506   4.2351 0013678 256.4130 211.1907 15.18318323125295
TIANWANG 1C (TW-1C)     
1 40926U 15051B   17359.47489267  .00007368  00000-0  15097-3 0  9994
2 40926  97.2060  37.7406 0010006 183.8554 283.6214 15.46317491126449
TIANWANG 1B (TW-1B)     
1 40927U 15051C   17359.49091444  .00007545  00000-0  16081-3 0  9994
2 40927  97.2156  37.6826 0009994 194.0116 273.7905 15.45152849126375
TIANWANG 1A (TW-1A)     
1 40928U 15051D   17359.38874683  .00002846  00000-0  79051-4 0  9993
2 40928  97.2067  31.7235 0010713 223.9502 261.4547 15.37655034126065
LAPAN-A2 (IO-86)        
1 40931U 15052B   17359.33261331  .00000713  00000-0  10216-4 0  9992
2 40931   6.0006 309.7946 0013407  65.7710 294.3819 14.76560224121265
LQSAT                   
1 40958U 15057A   17359.40382448  .00000058  00000-0  16792-4 0  9994
2 40958  97.9606  71.2001 0018311 169.2665 190.8936 14.73008781119269
CHUBUSAT-2              
1 41338U 16012B   17359.22611951  .00000418  00000-0  26029-4 0  9997
2 41338  31.0046 338.8282 0013926 151.0094 209.1316 14.99894497101693
CHUBUSAT-3              
1 41339U 16012C   17359.32848962  .00000352  00000-0  20699-4 0  9997
2 41339  31.0109 337.0275 0013683 158.7734 201.3464 15.00087721101697
OUFTI-1                 
1 41458U 16025C   17359.50412105  .00000791  00000-0  45933-4 0  9994
2 41458  98.1603  47.9136 0171578  10.2823 350.1877 15.04079937 91327
E-ST@R-II               
1 41459U 16025D   17359.41604290  .00001917  00000-0  10488-3 0  9990
2 41459  98.1619  47.7218 0172312  11.0215 349.4713 15.03862863 91300
AAUSAT 4                
1 41460U 16025E   17359.54737249  .00002579  00000-0  13853-3 0  9991
2 41460  98.1559  48.1225 0164217   7.8089 352.5632 15.05080986 91366
NUSAT 1 (LO-87)         
1 41557U 16033B   17359.30919669  .00001767  00000-0  67544-4 0  9994
2 41557  97.4502  78.7757 0015262  56.5336 303.7360 15.27856709 87609
BEESAT-4                
1 41619U 16040W   17359.15696667  .00001918  00000-0  87917-4 0  9998
2 41619  97.4395  59.5415 0013274 117.2804 242.9785 15.21599538 71620
PRATHAM                 
1 41783U 16059A   17359.47528600  .00000073  00000-0  23594-4 0  9998
2 41783  98.1433  58.6182 0032333 281.2556  78.5012 14.62889844 66566
ALSAT 1N                
1 41789U 16059G   17359.44160039  .00000106  00000-0  29329-4 0  9998
2 41789  98.1440  59.4599 0026942 274.6071  85.2056 14.64113603 66599
NAYIF-1 (EO-88)         
1 42017U 17008BX  17358.92112436  .00002048  00000-0  87844-4 0  9991
2 42017  97.4724  59.8551 0004935 273.0141  87.0532 15.23876735 47521
LILACSAT-1              
1 42725U 98067ME  17359.47896166  .00023866  00000-0  27227-3 0  9990
2 42725  51.6369 158.9278 0004689 293.8933  66.1570 15.62081083 33304
MAX VALIER SAT          
1 42778U 17036P   17359.24956115  .00001356  00000-0  64324-4 0  9991
2 42778  97.4285  56.6518 0011683 324.7038  35.3422 15.20933055 28060
FOX-1B (AO-91)          
1 43017U 17073E   17359.48838896  .00000638  00000-0  55093-4 0  9995
2 43017  97.6950 293.0188 0261939 116.8705 245.9539 14.77811099  5450
